[{"OBJECT_NAME":"IRIDIUM 158","OBJECT_ID":"2018-061C","EPOCH":"2026-03-09T15:12:46.379232","MEAN_MOTION":14.34217236,"ECCENTRICITY":0.0001997,"INCLINATION":86.3916,"RA_OF_ASC_NODE":98.4013,"ARG_OF_PERICENTER":90.655,"MEAN_ANOMALY":269.4875,"EPHEMERIS_TYPE":0,"CLASSIFICATION_TYPE":"U","NORAD_CAT_ID":43571,"ELEMENT_SET_NO":999,"REV_AT_EPOCH":39909,"BSTAR":-1.4507e-5,"MEAN_MOTION_DOT":-2.1e-7,"MEAN_MOTION_DDOT":0},{"OBJECT_NAME":"FENGYUN 1C DEB","OBJECT_ID":"1999-025BVM","EPOCH":"2026-03-09T14:04:32.291040","MEAN_MOTION":14.30497241,"ECCENTRICITY":0.006641,"INCLINATION":98.5353,"RA_OF_ASC_NODE":105.0497,"ARG_OF_PERICENTER":118.9929,"MEAN_ANOMALY":32.1683,"EPHEMERIS_TYPE":0,"CLASSIFICATION_TYPE":"U","NORAD_CAT_ID":31473,"ELEMENT_SET_NO":999,"REV_AT_EPOCH":70762,"BSTAR":0.0014556,"MEAN_MOTION_DOT":3.843e-5,"MEAN_MOTION_DDOT":0}]
